NORAD_CAT_ID,OBJECT_NAME,OBJECT_TYPE,EPOCH,MEAN_MOTION,ECCENTRICITY,INCLINATION,RA_OF_ASC_NODE,ARG_OF_PERICENTER,MEAN_ANOMALY,BSTAR,MEAN_MOTION_DOT,MEAN_MOTION_DDOT,TLE_LINE0,TLE_LINE1,TLE_LINE2,SEMIMAJOR_AXIS,PERIOD,APOGEE,PERIGEE,DECAYED
51872.0,STARLINK-3554,PAYLOAD,2022-03-07 20:00:01,15.81896297,0.0001215,53.2173,123.3652,61.26300000000001,114.9957,-0.0047083,-0.00881522,0.0,0 STARLINK-3554,1 51872U 22022W   22066.83334491 -.00881522  00000-0 -47083-2 0  9994,2 51872  53.2173 123.3652 0001215  61.2630 114.9957 15.81896297  1884,6703.215,91.03,325.895,324.266,0.0
51872.0,STARLINK-3554,PAYLOAD,2022-03-08 14:00:01,15.80473205,0.0001163,53.2174,119.6112,59.5093,68.4137,-0.0049532,-0.00869031,0.0,0 STARLINK-3554,1 51872U 22022W   22067.58334491 -.00869031  00000-0 -49532-2 0  9999,2 51872  53.2174 119.6112 0001163  59.5093  68.4137 15.80473205  1454,6707.239000000001,91.112,329.884,328.3230000000001,0.0
51872.0,STARLINK-3554,PAYLOAD,2022-03-08 20:00:01,15.80007614,0.0001165,53.2175,118.3595,52.2082,58.7503,-0.0051254,-0.0087904,0.0,0 STARLINK-3554,1 51872U 22022W   22067.83334491 -.00879040  00000-0 -51254-2 0  9992,2 51872  53.2175 118.3595 0001165  52.2082  58.7503 15.80007614  2037,6708.556,91.139,331.2030000000001,329.64,0.0
51872.0,STARLINK-3554,PAYLOAD,2022-03-08 22:00:00,15.79848392,0.0001333,53.2176,117.9424,53.7002,171.5104,-0.0051438999999999,-0.00876128,0.0,0 STARLINK-3554,1 51872U 22022W   22067.91667824 -.00876128  00000-0 -51439-2 0  9999,2 51872  53.2176 117.9424 0001333  53.7002 171.5104 15.79848392  1505,6709.007,91.148,331.766,329.978,0.0
51872.0,STARLINK-3554,PAYLOAD,2022-03-09 14:00:01,15.78587289,0.0001109,53.2173,114.6159,55.5176,1.9998,-0.0054163,-0.00871209,0.0,0 STARLINK-3554,1 51872U 22022W   22068.58334491 -.00871209  00000-0 -54163-2 0  9996,2 51872  53.2173 114.6159 0001109  55.5176   1.9998 15.78587289  1617,6712.579000000002,91.221,335.189,333.7,0.0
51872.0,STARLINK-3554,PAYLOAD,2022-03-09 22:00:01,15.77958843,0.0001334,53.2173,112.9517,47.3848,105.2187,-0.0055808,-0.00872401,0.0,0 STARLINK-3554,1 51872U 22022W   22068.91668981 -.00872401  00000-0 -55808-2 0  9999,2 51872  53.2173 112.9517 0001334  47.3848 105.2187 15.77958843  2202,6714.361999999999,91.257,337.122,335.331,0.0
51872.0,STARLINK-3554,PAYLOAD,2022-03-10 14:00:01,15.76700814,0.0001039,53.2173,109.6346,59.6751,280.6308,-0.0059069,-0.0087251,0.0,0 STARLINK-3554,1 51872U 22022W   22069.58334491 -.00872510  00000-0 -59069-2 0  9993,2 51872  53.2173 109.6346 0001039  59.6751 280.6308 15.76700814  1772,6717.933000000001,91.33,340.496,339.1,0.0
51872.0,STARLINK-3554,PAYLOAD,2022-03-10 20:00:01,15.76231865,0.0001129,53.2176,108.3897,55.2677,264.6724,-0.0060732,-0.00877971,0.0,0 STARLINK-3554,1 51872U 22022W   22069.83334491 -.00877971  00000-0 -60732-2 0  9996,2 51872  53.2176 108.3897 0001129  55.2677 264.6724 15.76231865  2355,6719.265,91.357,341.889,340.371,0.0
51872.0,STARLINK-3554,PAYLOAD,2022-03-10 22:00:01,15.76070819,0.0001188,53.2175,107.9751,48.1364,24.9879,-0.0060693,-0.00871822,0.0,0 STARLINK-3554,1 51872U 22022W   22069.91668981 -.00871822  00000-0 -60693-2 0  9994,2 51872  53.2175 107.9751 0001188  48.1364  24.9879 15.76070819  1826,6719.723000000001,91.366,342.386,340.789,0.0
51872.0,STARLINK-3554,PAYLOAD,2022-03-11 12:00:00,15.74968447,0.0001318,53.2176,105.0806,55.7473,87.8045,-0.0063544,-0.00869674,0.0,0 STARLINK-3554,1 51872U 22022W   22070.50001157 -.00869674  00000-0 -63544-2 0  9997,2 51872  53.2176 105.0806 0001318  55.7473  87.8045 15.74968447  1911,6722.858,91.43,345.6090000000001,343.837,0.0
51872.0,STARLINK-3554,PAYLOAD,2022-03-11 20:00:01,15.74344288,0.0001372,53.2175,103.4256,49.5904,184.6317,-0.0065992,-0.0087795,0.0,0 STARLINK-3554,1 51872U 22022W   22070.83334491 -.00877950  00000-0 -65992-2 0  9998,2 51872  53.2175 103.4256 0001372  49.5904 184.6317 15.74344288  2517,6724.635,91.467,347.422,345.577,0.0
51872.0,STARLINK-3554,PAYLOAD,2022-03-11 22:00:00,15.741844699999998,0.0001200999999999,53.2173,103.0122,45.0045,301.7686,-0.0066218999999999,-0.00875092,0.0,0 STARLINK-3554,1 51872U 22022W   22070.91667824 -.00875092  00000-0 -66219-2 0  9994,2 51872  53.2173 103.0122 0001201  45.0045 301.7686 15.74184470  1987,6725.09,91.476,347.76300000000015,346.147,0.0
51872.0,STARLINK-3554,PAYLOAD,2022-03-12 06:00:00,15.7337102,0.0001519,53.2174,101.3622,34.5722,41.9543,-0.0018175,-0.00250096,0.0,0 STARLINK-3554,1 51872U 22022W   22071.25001157 -.00250096  00000-0 -18175-2 0  9992,2 51872  53.2174 101.3622 0001519  34.5722  41.9543 15.73371020  2570,6727.408,91.523,350.295,348.251,0.0
51872.0,STARLINK-3554,PAYLOAD,2022-03-12 14:00:01,15.73204963,0.000123,53.2172,99.7133,56.1864,109.3607,-3.4707e-06,-1.107e-05,0.0,0 STARLINK-3554,1 51872U 22022W   22071.58334491 -.00001107  00000-0 -34707-5 0  9997,2 51872  53.2172  99.7133 0001230  56.1864 109.3607 15.73204963  2630,6727.880999999999,91.533,350.574,348.918,0.0
51872.0,STARLINK-3554,PAYLOAD,2022-03-12 20:00:01,15.73257948,0.0001475,53.2191,98.4815,50.0287,92.3743,-0.00028078,-0.00039937,0.0,0 STARLINK-3554,1 51872U 22022W   22071.83334491 -.00039937  00000-0 -28078-3 0  9999,2 51872  53.2191  98.4815 0001475  50.0287  92.3743 15.73257948  2663,6727.73,91.53,350.587,348.603,0.0
51872.0,STARLINK-3554,PAYLOAD,2022-03-12 22:00:00,15.73205567,0.000152,53.219,98.0687,53.1319,201.5339,0.00045989,0.00064435,0.0,0 STARLINK-3554,1 51872U 22022W   22071.91667824  .00064435  00000-0  45989-3 0  9996,2 51872  53.2190  98.0687 0001520  53.1319 201.5339 15.73205567  2144,6727.879,91.533,350.767,348.722,0.0
51872.0,STARLINK-3554,PAYLOAD,2022-03-13 14:00:01,15.73171996,0.0001449,53.2183,94.7718,38.3169,34.2232,-0.00043392,-0.00061006,0.0,0 STARLINK-3554,1 51872U 22022W   22072.58334491 -.00061006  00000-0 -43392-3 0  9990,2 51872  53.2183  94.7718 0001449  38.3169  34.2232 15.73171996  2783,6727.975,91.535,350.815,348.865,0.0
51872.0,STARLINK-3554,PAYLOAD,2022-03-13 22:00:01,15.73097917,0.0001132,53.2182,93.1205,42.7988,118.6747,0.00063382,0.00088887,0.0,0 STARLINK-3554,1 51872U 22022W   22072.91668981  .00088887  00000-0  63382-3 0  9996,2 51872  53.2182  93.1205 0001132  42.7988 118.6747 15.73097917  2297,6728.186,91.539,350.81300000000016,349.29,0.0
51872.0,STARLINK-3554,PAYLOAD,2022-03-14 04:00:00,15.73170225,0.0001229,53.2186,91.8844,45.2594,92.796,0.00061404,0.00086335,0.0,0 STARLINK-3554,1 51872U 22022W   22073.16667824  .00086335  00000-0  61404-3 0  9998,2 51872  53.2186  91.8844 0001229  45.2594  92.7960 15.73170225  2870,6727.98,91.535,350.672,349.01800000000014,0.0
51872.0,STARLINK-3554,PAYLOAD,2022-03-14 14:00:01,15.73346207,0.0001411,53.2184,89.8237,38.8735,300.4505,-0.00017779,-0.00025653,0.0,0 STARLINK-3554,1 51872U 22022W   22073.58335648 -.00025653  00000-0 -17779-3 0  9994,2 51872  53.2184  89.8237 0001411  38.8735 300.4505 15.73346207  2407,6727.478,91.525,350.293,348.394,0.0
51872.0,STARLINK-3554,PAYLOAD,2022-03-14 20:00:01,15.73304626,0.0001261,53.2188,88.5848,45.4144,270.6747,0.00044549,0.00062651,0.0,0 STARLINK-3554,1 51872U 22022W   22073.83334491  .00062651  00000-0  44549-3 0  9999,2 51872  53.2188  88.5848 0001261  45.4144 270.6747 15.73304626  2984,6727.597,91.527,350.31,348.61400000000015,0.0
51872.0,STARLINK-3554,PAYLOAD,2022-03-14 22:00:00,15.73302376,0.0001264999999999,53.2186,88.1719,46.1431,22.1831,9.2864e-05,0.00012489,0.0,0 STARLINK-3554,1 51872U 22022W   22073.91667824  .00012489  00000-0  92864-4 0  9995,2 51872  53.2186  88.1719 0001265  46.1431  22.1831 15.73302376  2991,6727.603,91.527,350.319,348.617,0.0
51872.0,STARLINK-3554,PAYLOAD,2022-03-15 02:00:01,15.73368199,0.0001273,53.2189,87.3475,48.8613,243.9784,-0.0011159,-0.00155483,0.0,0 STARLINK-3554,1 51872U 22022W   22074.08334491 -.00155483  00000-0 -11159-2 0  9995,2 51872  53.2189  87.3475 0001273  48.8613 243.9784 15.73368199  3024,6727.416,91.523,350.13699999999994,348.4240000000001,0.0
51872.0,STARLINK-3554,PAYLOAD,2022-03-15 22:00:00,15.73032073,0.0001472,53.2179,83.2234,57.3764,277.7544,0.00092297,0.00129996,0.0,0 STARLINK-3554,1 51872U 22022W   22074.91667824  .00129996  00000-0  92297-3 0  9997,2 51872  53.2179  83.2234 0001472  57.3764 277.7544 15.73032073  3156,6728.374,91.543,351.22900000000016,349.249,0.0
51872.0,STARLINK-3554,PAYLOAD,2022-03-16 12:00:00,15.73179208,0.0001478,53.2181,80.3396,41.3026,359.24300000000005,0.00062407,0.00087806,0.0,0 STARLINK-3554,1 51872U 22022W   22075.50001157  .00087806  00000-0  62407-3 0  9997,2 51872  53.2181  80.3396 0001478  41.3026 359.2430 15.73179208  3248,6727.954000000002,91.534,350.814,348.825,0.0
51872.0,STARLINK-3554,PAYLOAD,2022-03-16 14:00:01,15.73222406,0.0001422,53.2182,79.9267,42.5851,110.1821,0.00010018,0.00013475,0.0,0 STARLINK-3554,1 51872U 22022W   22075.58334491  .00013475  00000-0  10018-3 0  9997,2 51872  53.2182  79.9267 0001422  42.5851 110.1821 15.73222406  2727,6727.831,91.532,350.653,348.74,0.0
51872.0,STARLINK-3554,PAYLOAD,2022-03-16 20:00:01,15.73225723,0.0001200999999999,53.2184,78.6879,44.83,84.6641,-4.907e-05,-7.508e-05,0.0,0 STARLINK-3554,1 51872U 22022W   22075.83334491 -.00007508  00000-0 -49070-4 0  9998,2 51872  53.2184  78.6879 0001201  44.8300  84.6641 15.73225723  3296,6727.821999999999,91.532,350.495,348.879,0.0
51872.0,STARLINK-3554,PAYLOAD,2022-03-17 14:00:01,15.73274981,0.0001465,53.2179,74.9777,41.0575,18.556,-0.000298,-0.00042367,0.0,0 STARLINK-3554,1 51872U 22022W   22076.58334491 -.00042367  00000-0 -29800-3 0  9991,2 51872  53.2179  74.9777 0001465  41.0575  18.5560 15.73274981  2881,6727.681,91.529,350.532,348.561,0.0
51872.0,STARLINK-3554,PAYLOAD,2022-03-17 22:00:00,15.73215005,0.0001303,53.2181,73.3264,55.3654,93.2589,0.00011224,0.0001517,0.0,0 STARLINK-3554,1 51872U 22022W   22076.91667824  .00015170  00000-0  11224-3 0  9998,2 51872  53.2181  73.3264 0001303  55.3654  93.2589 15.73215005  2934,6727.852,91.532,350.594,348.841,0.0
